NORAD_CAT_ID,OBJECT_NAME,OBJECT_TYPE,EPOCH,MEAN_MOTION,ECCENTRICITY,INCLINATION,RA_OF_ASC_NODE,ARG_OF_PERICENTER,MEAN_ANOMALY,BSTAR,MEAN_MOTION_DOT,MEAN_MOTION_DDOT,TLE_LINE0,TLE_LINE1,TLE_LINE2,SEMIMAJOR_AXIS,PERIOD,APOGEE,PERIGEE,DECAYED
55431.0,STARLINK-5643,PAYLOAD,2023-05-06 06:00:00,15.4212697,0.0003223,69.9993,184.9085,266.1357,300.4192,-0.024372,-0.00957957,0.0,0 STARLINK-5643,1 55431U 23014AS  23126.25001157 -.00957957  00000-0 -24372-1 0  9996,2 55431  69.9993 184.9085 0003223 266.1357 300.4192 15.42126970 15024,6817.97,93.378,442.032,437.638,0.0
55431.0,STARLINK-5643,PAYLOAD,2023-05-06 16:00:00,15.41300656,0.000337,69.9987,183.7854,273.2479,85.157,-0.024446,-0.00936575,0.0,0 STARLINK-5643,1 55431U 23014AS  23126.66667824 -.00936575  00000-0 -24446-1 0  9995,2 55431  69.9987 183.7854 0003370 273.2479  85.1570 15.41300656  1290,6820.407,93.428,444.57,439.973,0.0
55431.0,STARLINK-5643,PAYLOAD,2023-05-07 06:00:00,15.40173234,0.0003431,69.9987,182.216,267.7739,85.1643,-0.026188,-0.00963921,0.0,0 STARLINK-5643,1 55431U 23014AS  23127.25001157 -.00963921  00000-0 -26188-1 0  9992,2 55431  69.9987 182.2160 0003431 267.7739  85.1643 15.40173234 15171,6823.735,93.496,447.941,443.258,0.0
55431.0,STARLINK-5643,PAYLOAD,2023-05-07 14:00:01,15.3947642,0.0003372,69.9987,181.3211,275.6972,124.48,-0.024347,-0.00882498,0.0,0 STARLINK-5643,1 55431U 23014AS  23127.58334491 -.00882498  00000-0 -24347-1 0  9992,2 55431  69.9987 181.3211 0003372 275.6972 124.4800 15.39476420  1302,6825.794,93.538,449.96,445.357,0.0
55431.0,STARLINK-5643,PAYLOAD,2023-05-07 22:00:00,15.38800748,0.0003373,69.9984,180.4254,271.1218,175.5137,-0.024001,-0.00853193,0.0,0 STARLINK-5643,1 55431U 23014AS  23127.91667824 -.00853193  00000-0 -24001-1 0  9995,2 55431  69.9984 180.4254 0003373 271.1218 175.5137 15.38800748 15275,6827.791,93.579,451.959,447.353,0.0
55431.0,STARLINK-5643,PAYLOAD,2023-05-08 14:00:01,15.37518662,0.0003359,69.9982,178.6383,274.9436,262.2337,-0.025994,-0.00883595,0.0,0 STARLINK-5643,1 55431U 23014AS  23128.58334491 -.00883595  00000-0 -25994-1 0  9991,2 55431  69.9982 178.6383 0003359 274.9436 262.2337 15.37518662 15380,6831.587,93.657,455.746,451.157,0.0
55431.0,STARLINK-5643,PAYLOAD,2023-05-08 22:00:00,15.36847075,0.00034,69.9983,177.7459,269.0732,312.2116,-0.025652,-0.00855452,0.0,0 STARLINK-5643,1 55431U 23014AS  23128.91667824 -.00855452  00000-0 -25652-1 0  9999,2 55431  69.9983 177.7459 0003400 269.0732 312.2116 15.36847075  1306,6833.577,93.698,457.765,453.118,0.0
55431.0,STARLINK-5643,PAYLOAD,2023-05-09 06:00:00,15.36246431,0.0003504,69.9989,176.8554,266.9689,357.6211,-0.029049,-0.00942322,0.0,0 STARLINK-5643,1 55431U 23014AS  23129.25001157 -.00942322  00000-0 -29049-1 0  9995,2 55431  69.9989 176.8554 0003504 266.9689 357.6211 15.36246431 15482,6835.358,93.735,459.618,454.828,0.0
55431.0,STARLINK-5643,PAYLOAD,2023-05-09 14:00:01,15.3556271,0.00036,69.9983,175.964,273.1726,33.9583,-0.027799,-0.00886837,0.0,0 STARLINK-5643,1 55431U 23014AS  23129.58334491 -.00886837  00000-0 -27799-1 0  9999,2 55431  69.9983 175.9640 0003600 273.1726  33.9583 15.35562710  1303,6837.387,93.777,461.713,456.79,0.0
55431.0,STARLINK-5643,PAYLOAD,2023-05-10 14:00:01,15.33609447,0.0003547,69.9984,173.2976,275.348,154.6971,-0.029707,-0.00890123,0.0,0 STARLINK-5643,1 55431U 23014AS  23130.58334491 -.00890123  00000-0 -29707-1 0  9995,2 55431  69.9984 173.2976 0003547 275.3480 154.6971 15.33609447  1307,6843.191,93.896,467.483,462.629,0.0
55431.0,STARLINK-5643,PAYLOAD,2023-05-10 22:00:00,15.32929712,0.0003406,69.9985,172.4107,269.4743,199.9877,-0.028805,-0.00848094,0.0,0 STARLINK-5643,1 55431U 23014AS  23130.91667824 -.00848094  00000-0 -28805-1 0  9999,2 55431  69.9985 172.4107 0003406 269.4743 199.9877 15.32929712 15733,6845.214,93.938,469.41,464.747,0.0
55431.0,STARLINK-5643,PAYLOAD,2023-05-11 06:00:00,15.32334919,0.0003397,69.9987,171.5246,269.9609,238.1116,-0.033358,-0.00954129,0.0,0 STARLINK-5643,1 55431U 23014AS  23131.25001157 -.00954129  00000-0 -33358-1 0  9994,2 55431  69.9987 171.5246 0003397 269.9609 238.1116 15.32334919 15791,6846.985,93.974,471.176,466.524,0.0
55431.0,STARLINK-5643,PAYLOAD,2023-05-11 14:00:01,15.31661262,0.0003324,69.9986,170.6394,274.0029,271.9134,-0.03206,-0.00902283,0.0,0 STARLINK-5643,1 55431U 23014AS  23131.58334491 -.00902283  00000-0 -32060-1 0  9993,2 55431  69.9986 170.6394 0003324 274.0029 271.9134 15.31661262  1307,6848.992,94.016,473.134,468.581,0.0
55431.0,STARLINK-5643,PAYLOAD,2023-05-11 16:00:00,15.31531792,0.0003407,69.9984,170.4183,272.1829,13.0626,-0.03466,-0.00978162,0.0,0 STARLINK-5643,1 55431U 23014AS  23131.66667824 -.00978162  00000-0 -34660-1 0  9998,2 55431  69.9984 170.4183 0003407 272.1829  13.0626 15.31531792 15858,6849.378,94.024,473.577,468.91,0.0
55431.0,STARLINK-5643,PAYLOAD,2023-05-11 22:00:00,15.30971601,0.000329,69.9987,169.7551,267.4455,315.5445,-0.030499,-0.00844697,0.0,0 STARLINK-5643,1 55431U 23014AS  23131.91667824 -.00844697  00000-0 -30499-1 0  9997,2 55431  69.9987 169.7551 0003290 267.4455 315.5445 15.30971601  1303,6851.049,94.058,475.168,470.66,0.0
55431.0,STARLINK-5643,PAYLOAD,2023-05-12 06:00:00,15.30373198,0.00034,69.9989,168.8718,268.4841,350.7719,-0.035148,-0.00958287,0.0,0 STARLINK-5643,1 55431U 23014AS  23132.25001157 -.00958287  00000-0 -35148-1 0  9993,2 55431  69.9989 168.8718 0003400 268.4841 350.7719 15.30373198 15940,6852.835,94.095,477.03,472.37,0.0
55431.0,STARLINK-5643,PAYLOAD,2023-05-12 12:00:00,15.29848149,0.0003269,69.9988,168.2098,274.1295,281.8264,-0.032546,-0.00868461,0.0,0 STARLINK-5643,1 55431U 23014AS  23132.50001157 -.00868461  00000-0 -32546-1 0  9994,2 55431  69.9988 168.2098 0003269 274.1295 281.8264 15.29848149  1309,6854.403,94.127,478.509,474.027,0.0
55431.0,STARLINK-5643,PAYLOAD,2023-05-12 22:00:00,15.29011621,0.0003407,69.9989,167.1078,268.0678,61.4106,-0.032161,-0.00838723,0.0,0 STARLINK-5643,1 55431U 23014AS  23132.91667824 -.00838723  00000-0 -32161-1 0  9999,2 55431  69.9989 167.1078 0003407 268.0678  61.4106 15.29011621 16048,6856.903,94.178,481.104,476.432,0.0
55431.0,STARLINK-5643,PAYLOAD,2023-05-13 06:00:00,15.28413824,0.000345,69.999,166.2271,270.3603,93.0374,-0.037235,-0.00955789,0.0,0 STARLINK-5643,1 55431U 23014AS  23133.25001157 -.00955789  00000-0 -37235-1 0  9997,2 55431  69.9990 166.2271 0003450 270.3603  93.0374 15.28413824 16090,6858.69,94.215,482.922,478.189,0.0
55431.0,STARLINK-5643,PAYLOAD,2023-05-13 14:00:01,15.27763379,0.0003454,69.9986,165.3471,276.4064,120.1305,-0.037221,-0.00937953,0.0,0 STARLINK-5643,1 55431U 23014AS  23133.58334491 -.00937953  00000-0 -37221-1 0  9991,2 55431  69.9986 165.3471 0003454 276.4064 120.1305 15.27763379  1305,6860.637,94.255,484.872,480.132,0.0
55431.0,STARLINK-5643,PAYLOAD,2023-05-13 22:00:00,15.27053094,0.0003345,69.9989,164.468,270.4601,158.4653,-0.033941,-0.00833975,0.0,0 STARLINK-5643,1 55431U 23014AS  23133.91667824 -.00833975  00000-0 -33941-1 0  9991,2 55431  69.9989 164.4680 0003345 270.4601 158.4653 15.27053094 16199,6862.764,94.299,486.925,482.334,0.0
55431.0,STARLINK-5643,PAYLOAD,2023-05-14 06:00:00,15.26451361,0.0003312,69.999,163.5901,272.1069,188.3935,-0.039211,-0.00948543,0.0,0 STARLINK-5643,1 55431U 23014AS  23134.25001157 -.00948543  00000-0 -39211-1 0  9994,2 55431  69.9990 163.5901 0003312 272.1069 188.3935 15.26451361 16247,6864.568,94.336,488.706,484.159,0.0
55431.0,STARLINK-5643,PAYLOAD,2023-05-14 14:00:01,15.25811655,0.0003198,69.9986,162.7126,277.376,213.9134,-0.03993,-0.00947469,0.0,0 STARLINK-5643,1 55431U 23014AS  23134.58334491 -.00947469  00000-0 -39930-1 0  9994,2 55431  69.9986 162.7126 0003198 277.3760 213.9134 15.25811655  1301,6866.486,94.376,490.547,486.155,0.0
55431.0,STARLINK-5643,PAYLOAD,2023-05-14 22:00:00,15.25099016,0.0003174,69.9987,161.8362,269.8945,251.4348,-0.03608,-0.0083546,0.0,0 STARLINK-5643,1 55431U 23014AS  23134.91667824 -.00835460  00000-0 -36080-1 0  9990,2 55431  69.9987 161.8362 0003174 269.8945 251.4348 15.25099016 16353,6868.625,94.42,492.67,488.31,0.0
55431.0,STARLINK-5643,PAYLOAD,2023-05-15 06:00:00,15.24486373,0.0003199,69.9989,160.9607,271.2625,279.3,-0.04097,-0.00935092,0.0,0 STARLINK-5643,1 55431U 23014AS  23135.25001157 -.00935092  00000-0 -40970-1 0  9994,2 55431  69.9989 160.9607 0003199 271.2625 279.3000 15.24486373 16401,6870.465,94.458,494.528,490.132,0.0
55431.0,STARLINK-5643,PAYLOAD,2023-05-15 14:00:01,15.23849866,0.000322,69.9984,160.0859,274.0517,304.9527,-0.042171,-0.00943681,0.0,0 STARLINK-5643,1 55431U 23014AS  23135.58334491 -.00943681  00000-0 -42171-1 0  9998,2 55431  69.9984 160.0859 0003220 274.0517 304.9527 15.23849866  1303,6872.378,94.497,496.456,492.03,0.0
55431.0,STARLINK-5643,PAYLOAD,2023-05-15 22:00:00,15.23151121,0.0003238,69.9985,159.2119,265.0257,341.6646,-0.038837,-0.00847407,0.0,0 STARLINK-5643,1 55431U 23014AS  23135.91667824 -.00847407  00000-0 -38837-1 0  9997,2 55431  69.9985 159.2119 0003238 265.0257 341.6646 15.23151121  1303,6874.48,94.541,498.571,494.119,0.0
55431.0,STARLINK-5643,PAYLOAD,2023-05-16 14:00:01,15.21901498,0.0003289,69.9981,157.4667,270.9698,28.7672,-0.045479,-0.00959266,0.0,0 STARLINK-5643,1 55431U 23014AS  23136.58335648 -.00959266  00000-0 -45479-1 0  9994,2 55431  69.9981 157.4667 0003289 270.9698  28.7672 15.21901498 16606,6878.242,94.618,502.37,497.845,0.0
55431.0,STARLINK-5643,PAYLOAD,2023-05-16 22:00:00,15.21191813,0.0003343,69.9981,156.5955,265.9959,59.0219,-0.04104,-0.00845248,0.0,0 STARLINK-5643,1 55431U 23014AS  23136.91667824 -.00845248  00000-0 -41040-1 0  9999,2 55431  69.9981 156.5955 0003343 265.9959  59.0219 15.21191813  1308,6880.382,94.663,504.547,499.946,0.0
55431.0,STARLINK-5643,PAYLOAD,2023-05-17 04:00:00,15.20758122,0.0003235,69.9984,155.9426,268.1874,345.2989,-0.047236,-0.00963041,0.0,0 STARLINK-5643,1 55431U 23014AS  23137.16667824 -.00963041  00000-0 -47236-1 0  9992,2 55431  69.9984 155.9426 0003235 268.1874 345.2989 15.20758122 16691,6881.69,94.69,505.781,501.328,0.0
